#aV2014  6 29  0  0  0.00000000     288 DD+AD WGS84 FIT  NGA
## 1799      0.00000000   300.00000000 56837 0.0000000000000
+   32     1  2  3  4  5  6  7  8  9 10 11 12 13 14 15 16 17
+         18 19 20 21 22 23 24 25 26 27 28 29 30 31 32  0  0
+          0  0  0  0  0  0  0  0  0  0  0  0  0  0  0  0  0
+          0  0  0  0  0  0  0  0  0  0  0  0  0  0  0  0  0
+          0  0  0  0  0  0  0  0  0  0  0  0  0  0  0  0  0
++         2  2  2  2  2  2  2  2  2  2  2  2  2  2  2  2  2
++         2  2  2  2  2  2  2  2  2  2  2  2  2  2  2  0  0
++         0  0  0  0  0  0  0  0  0  0  0  0  0  0  0  0  0
++         0  0  0  0  0  0  0  0  0  0  0  0  0  0  0  0  0
++         0  0  0  0  0  0  0  0  0  0  0  0  0  0  0  0  0
%c cc cc ccc ccc cccc cccc cccc cccc ccccc ccccc ccccc ccccc
%c cc cc ccc ccc cccc cccc cccc cccc ccccc ccccc ccccc ccccc
%f  0.0000000  0.000000000  0.00000000000  0.000000000000000
%f  0.0000000  0.000000000  0.00000000000  0.000000000000000
%i    0    0    0    0      0      0      0      0         0
%i    0    0    0    0      0      0      0      0         0
/*      NGA, ST. LOUIS,MO.                                  
/*   EPHEMERIS COMPUTED FROM  1 DAYS OF DATA                
/*   EPOCHA SMOOTHER                                       
/* CCCCCCCCCCCCCCCCCCCCCCCCCCCCCCCCCCCCCCCCCCCCCCCCCCCCCCCCC
*  2014  6 29  1  0  0.00000000
P  1  22972.374527  13441.832928   1127.713612     16.451540                    
V  1   -183.727973   3057.354168 -31619.048979      0.009263                    
P  2  -6393.236949 -18965.025043  17988.696877    503.778839                    
V  2  19917.238759   9799.303267  17218.107986      0.021898                    
P  3   6480.709079  14880.166737 -21570.347173    383.873673                    
V  3 -21232.719639  15352.246990   4470.217429      0.048688                    
P  4  12522.850574 -10217.270792  20785.189132      7.351886                    
V  4  22917.001368  14628.573980  -6263.475976      0.000447                    
P  5  -2556.378145 -25965.940561  -4496.686026   -362.202930                    
V  5   3483.751052  -5616.544268  30851.182787      0.029524                    
P  6   6223.974178 -13973.742334  21702.764261      3.953283                    
V  6  23615.479320  14249.203203   2390.157200     -0.026209                    
P  7  22602.726354   3615.202402 -13688.097443    362.870576                    
V  7  13614.496397  10881.562449  24880.469151      0.042510                    
P  8  18550.050436   -902.141780 -19066.120857     14.452591                    
V  8  18530.128934  15664.717160  16548.242881      0.002201                    
P  9  14099.121060  -8172.084250 -21547.591659     85.647601                    
V  9  21860.258655  14125.054370   8968.711186      0.672262                    
P 10   8753.147518 -22286.173728  10684.311299   -131.556480                    
V 10   2759.293491  14393.330690  27328.111233     -0.014320                    
P 11  21399.514541  13038.622225  -9590.677406   -501.088041                    
V 11 -12236.783058   1368.235760 -26638.015367     -0.030245                    
P 12 -11122.574203 -15522.951725  18480.362250    214.628636                    
V 12   2641.166874 -23347.354521 -17735.580939      0.025283                    
P 13  24565.875526  -2867.873114   9781.183840    -15.239419                    
V 13 -10873.612169   6523.206916  28676.659732     -0.038682                    
P 14 -20967.861131  14638.052732   7097.346632    159.287032                    
V 14  -8995.118385   1289.522394 -30337.800538     -0.035090                    
P 15 -13235.720682 -10004.813349 -20845.391747   -187.986902                    
V 15  22390.232077 -13965.027786  -7241.998312     -0.021918                    
P 16    906.381289  25904.308333  -4879.234373   -210.537774                    
V 16  -2731.460838   5951.236163  31790.333734      0.021438                    
P 17  20358.480448 -15356.958374   7248.861945   -104.897932                    
V 17   9126.873022  -1585.562197 -30288.206441     -0.029005                    
P 18 -15378.539160   6147.341107 -20248.156477    328.373159                    
V 18   -655.490740 -26979.042462  -7851.242099      0.023177                    
P 19   9826.836885  12110.518851 -21695.284277   -465.309590                    
V 19 -24911.676168  10731.887265  -4885.178523     -0.021206                    
P 20  14502.851475  11683.108578  18776.427527    204.998169                    
V 20  -1002.891356  24378.721298 -14186.748781      0.041000                    
P 21 -21301.974671    503.535796 -15482.777473   -369.682148                    
V 21 -16464.410209 -12842.874857  20915.697508     -0.021538                    
P 22 -10985.730809  19511.107370 -13944.285605    245.963440                    
V 22  -2773.429686 -18306.183577 -23235.211379      0.032621                    
P 23  19389.578547   4261.388136  17959.742148    -32.435448                    
V 23 -19180.932260  11751.208902  17609.559939     -0.030181                    
P 24 -21396.371645 -15508.540750  -3171.602292    -30.938767                    
V 24   4883.487079   -371.056930 -31261.699853     -0.006179                    
P 25 -14766.153914  -2001.935709  21913.109440     24.916372                    
V 25    863.942325 -27945.460627  -1833.676674     -0.000076                    
P 26   -365.063924 -15915.031640 -21874.296350     31.498523                    
V 26  24439.409358  -9581.237152   7050.240764     -0.123933                    
P 27  -2266.604254  17130.976582 -20162.786508     -6.351195                    
V 27 -23015.427017  11231.014126  12197.647977      0.030771                    
P 28  12509.754626 -15873.887346 -16558.788066    365.765634                    
V 28   -554.066853  22237.533689 -21106.539498      0.027083                    
P 29 -24153.506479   3470.412146  10464.284487    543.000994                    
V 29  11015.525964  -7680.903131  28109.191034      0.026387                    
P 30  16790.241659  -5075.862315 -19964.126214    -35.099577                    
V 30  19775.941032  15861.768378  12565.928701     -0.067111                    
P 31  -5126.799274  14294.399032  21910.998030    333.798569                    
V 31 -23136.115543 -14768.241861   4549.602697     -0.002015                    
P 32   6108.551613  23140.398654  12132.321293   -396.708675                    
V 32  -4007.879625  14790.451409 -25766.559142      0.083405                    
EOF
